     2              NAVIGATION DATA                         RINEX VERSION / TYPE
CCRINEXN V1.6.0 UX  CDDIS               06-DEC-16 17:31     PGM / RUN BY / DATE 
IGS BROADCAST EPHEMERIS FILE                                COMMENT             
    0.1024D-07 -0.1490D-07 -0.5960D-07  0.1192D-06          ION ALPHA           
    0.9830D+05 -0.1475D+06 -0.1966D+06  0.8520D+06          ION BETA            
    0.279396772385D-08 0.621724893790D-14   147456     1926 DELTA-UTC: A0,A1,T,W
    17                                                      LEAP SECONDS        
                                                            END OF HEADER       
18 16 12  5  0  0  0.0 0.581468455494D-03 0.306954461848D-11 0.000000000000D+00
    0.780000000000D+02 0.186250000000D+02 0.554701676980D-08-0.989566416213D-01
    0.968575477600D-06 0.173180892598D-01 0.864081084728D-05 0.515372739792D+04
    0.864000000000D+05-0.253319740295D-06 0.161923654338D+01 0.245869159698D-06
    0.924806470702D+00 0.198875000000D+03-0.184801903510D+01-0.874643575273D-08
    0.433946647048D-09 0.100000000000D+01 0.192600000000D+04 0.000000000000D+00
    0.200000000000D+01 0.000000000000D+00-0.111758708954D-07 0.780000000000D+02
    0.812700000000D+05 0.400000000000D+01 0.000000000000D+00 0.000000000000D+00
19 16 12  5  0  0  0.0-0.518735498190D-03 0.795807864051D-12 0.000000000000D+00
    0.640000000000D+02-0.555625000000D+02 0.430625080120D-08 0.147915557757D+01
   -0.300630927086D-05 0.102674590889D-01 0.428594648838D-05 0.515363717079D+04
    0.864000000000D+05-0.134110450745D-06-0.341042503663D+00-0.167638063431D-07
    0.975784398114D+00 0.312500000000D+03 0.894291077739D+00-0.817962642856D-08
   -0.215723271454D-09 0.100000000000D+01 0.192600000000D+04 0.000000000000D+00
    0.200000000000D+01 0.000000000000D+00-0.149011611938D-07 0.640000000000D+02
    0.822600000000D+05 0.400000000000D+01 0.000000000000D+00 0.000000000000D+00
20 16 12  5  0  0  0.0 0.449217390269D-03 0.181898940355D-11 0.000000000000D+00
    0.460000000000D+02 0.162500000000D+02 0.532665044780D-08-0.252255179806D+01
    0.752508640289D-06 0.476246245671D-02 0.826641917229D-05 0.515360803986D+04
    0.864000000000D+05 0.204890966415D-07 0.156765874641D+01 0.149011611938D-07
    0.926126776212D+00 0.195750000000D+03 0.150725410990D+01-0.830141721592D-08
    0.421446126351D-09 0.100000000000D+01 0.192600000000D+04 0.000000000000D+00
    0.200000000000D+01 0.000000000000D+00-0.838190317154D-08 0.460000000000D+02
    0.792180000000D+05 0.400000000000D+01 0.000000000000D+00 0.000000000000D+00
21 16 12  5  0  0  0.0-0.529731158167D-03 0.113686837722D-11 0.000000000000D+00
    0.790000000000D+02-0.758750000000D+02 0.501128016850D-08 0.832090359652D+00
   -0.402331352234D-05 0.234864030499D-01 0.982359051704D-05 0.515378392410D+04
    0.864000000000D+05-0.357627868652D-06 0.577874838166D+00-0.894069671631D-07
    0.938161233335D+00 0.187968750000D+03-0.173757201168D+01-0.862714506951D-08
   -0.960754304988D-10 0.100000000000D+01 0.192600000000D+04 0.000000000000D+00
    0.400000000000D+01 0.000000000000D+00-0.977888703346D-08 0.790000000000D+02
    0.853800000000D+05 0.400000000000D+01 0.000000000000D+00 0.000000000000D+00
22 16 12  5  0  0  0.0 0.171318650246D-03-0.109139364213D-10 0.000000000000D+00
    0.960000000000D+02 0.950000000000D+01 0.536593779856D-08-0.215922887797D+01
    0.426545739174D-06 0.730154605117D-02 0.838376581669D-05 0.515365382957D+04
    0.864000000000D+05 0.143423676491D-06 0.161947387404D+01 0.335276126862D-07
    0.922781414647D+00 0.191281250000D+03-0.184117493818D+01-0.826927301984D-08
    0.486805991709D-09 0.100000000000D+01 0.192600000000D+04 0.000000000000D+00
    0.200000000000D+01 0.000000000000D+00-0.176951289177D-07 0.960000000000D+02
    0.815460000000D+05 0.400000000000D+01 0.000000000000D+00 0.000000000000D+00
23 16 12  5  0  0  0.0-0.198769383132D-03-0.113686837722D-11 0.000000000000D+00
    0.420000000000D+02 0.765625000000D+01 0.518735893146D-08-0.286832391734D+01
    0.260770320892D-06 0.111344493926D-01 0.657700002193D-05 0.515356932449D+04
    0.864000000000D+05-0.279396772385D-07 0.270025490900D+01-0.188127160072D-06
    0.945216638536D+00 0.247468750000D+03-0.252153553521D+01-0.814676791701D-08
   -0.106433004790D-09 0.100000000000D+01 0.192600000000D+04 0.000000000000D+00
    0.200000000000D+01 0.000000000000D+00-0.200234353542D-07 0.420000000000D+02
    0.854700000000D+05 0.400000000000D+01 0.000000000000D+00 0.000000000000D+00
24 16 12  5  0  0  0.0-0.270488671958D-04-0.568434188608D-12 0.000000000000D+00
    0.290000000000D+02 0.415312500000D+02 0.471448209139D-08 0.280660858962D+01
    0.217556953430D-05 0.511683011428D-02 0.928342342377D-05 0.515371957970D+04
    0.864000000000D+05-0.104308128357D-06-0.255871958318D+01-0.316649675369D-07
    0.947583768725D+00 0.193187500000D+03 0.404113511716D+00-0.800783355841D-08
   -0.255010622216D-09 0.100000000000D+01 0.192600000000D+04 0.000000000000D+00
    0.200000000000D+01 0.000000000000D+00 0.232830643654D-08 0.290000000000D+02
    0.804900000000D+05 0.400000000000D+01 0.000000000000D+00 0.000000000000D+00
25 16 12  5  0  0  0.0-0.293930992484D-03-0.682121026330D-11 0.000000000000D+00
    0.220000000000D+02 0.727187500000D+02 0.422910473062D-08 0.745805578802D+00
    0.384636223316D-05 0.576265749987D-02 0.527687370777D-05 0.515366721916D+04
    0.864000000000D+05-0.353902578354D-07-0.148082086110D+01 0.931322574615D-07
    0.977794528015D+00 0.285250000000D+03 0.755595213002D+00-0.812676708390D-08
    0.317870383435D-10 0.100000000000D+01 0.192600000000D+04 0.000000000000D+00
    0.200000000000D+01 0.000000000000D+00 0.558793544769D-08 0.220000000000D+02
    0.854700000000D+05 0.400000000000D+01 0.000000000000D+00 0.000000000000D+00
26 16 12  5  0  0  0.0-0.507898628712D-03-0.363797880709D-11 0.000000000000D+00
    0.101000000000D+03 0.789687500000D+02 0.454018911710D-08 0.404295972710D+00
    0.395253300667D-05 0.134481093846D-02 0.540912151337D-05 0.515362430573D+04
    0.864000000000D+05 0.316649675369D-07-0.149318029231D+01 0.372529029846D-08
    0.959672058308D+00 0.272718750000D+03-0.198626812758D+00-0.825498671047D-08
    0.667884962947D-10 0.100000000000D+01 0.192600000000D+04 0.000000000000D+00
    0.280000000000D+01 0.000000000000D+00 0.745058059692D-08 0.101000000000D+03
    0.854700000000D+05 0.400000000000D+01 0.000000000000D+00 0.000000000000D+00
27 16 12  5  0  0  0.0 0.174718443304D-03 0.534328137292D-11 0.000000000000D+00
    0.220000000000D+02-0.504062500000D+02 0.432982316667D-08-0.156892081023D+01
   -0.253133475781D-05 0.399227428716D-02 0.364333391190D-05 0.515365575028D+04
    0.864000000000D+05-0.502914190292D-07-0.440289050298D+00-0.912696123123D-07
    0.973492975398D+00 0.317468750000D+03 0.302796802874D+00-0.817284018240D-08
   -0.857178564240D-10 0.100000000000D+01 0.192600000000D+04 0.000000000000D+00
    0.200000000000D+01 0.000000000000D+00 0.139698386192D-08 0.220000000000D+02
    0.864000000000D+05 0.000000000000D+00 0.000000000000D+00 0.000000000000D+00
28 16 12  5  0  0  0.0 0.571957789361D-03 0.284217094304D-11 0.000000000000D+00
    0.210000000000D+02 0.595000000000D+02 0.410838563170D-08-0.768290246396D+00
    0.328198075295D-05 0.201290281257D-01 0.604987144470D-05 0.515363558579D+04
    0.864000000000D+05-0.275671482086D-06-0.140402028496D+01 0.838190317154D-07
    0.988971257251D+00 0.282625000000D+03-0.159491726241D+01-0.831034618898D-08
    0.150006243538D-09 0.100000000000D+01 0.192600000000D+04 0.000000000000D+00
    0.200000000000D+01 0.000000000000D+00-0.111758708954D-07 0.210000000000D+02
    0.864000000000D+05 0.000000000000D+00 0.000000000000D+00 0.000000000000D+00
29 16 12  5  0  0  0.0 0.640369486064D-03-0.181898940355D-11 0.000000000000D+00
    0.540000000000D+02-0.617500000000D+02 0.423053336155D-08 0.587221528568D+00
   -0.327639281750D-05 0.507846241817D-03 0.394135713577D-05 0.515370871544D+04
    0.864000000000D+05 0.298023223877D-07-0.379371634671D+00-0.167638063431D-07
    0.979634754611D+00 0.312906250000D+03-0.140062021025D+00-0.809676583422D-08
   -0.133219834855D-09 0.100000000000D+01 0.192600000000D+04 0.000000000000D+00
    0.200000000000D+01 0.000000000000D+00-0.102445483208D-07 0.540000000000D+02
    0.854700000000D+05 0.400000000000D+01 0.000000000000D+00 0.000000000000D+00
30 16 12  5  0  0  0.0 0.158527400345D-03 0.682121026330D-12 0.000000000000D+00
    0.700000000000D+02 0.346250000000D+02 0.474091166325D-08 0.185882294552D+01
    0.192411243916D-05 0.235551164951D-02 0.950694084167D-05 0.515374617767D+04
    0.864000000000D+05-0.167638063431D-07-0.246685511282D+01 0.242143869400D-07
    0.950247605033D+00 0.191625000000D+03-0.313722579485D+01-0.811498068742D-08
   -0.297155244855D-09 0.100000000000D+01 0.192600000000D+04 0.000000000000D+00
    0.200000000000D+01 0.000000000000D+00 0.372529029846D-08 0.700000000000D+02
    0.864000000000D+05 0.000000000000D+00 0.000000000000D+00 0.000000000000D+00
31 16 12  5  0  0  0.0 0.232920981944D-03-0.216004991671D-11 0.000000000000D+00
    0.900000000000D+02 0.500625000000D+02 0.426374903083D-08 0.171415416620D+01
    0.283308327198D-05 0.852186814882D-02 0.949390232563D-05 0.515361099243D+04
    0.864000000000D+05 0.134110450745D-06-0.249807978259D+01 0.596046447754D-07
    0.969284774510D+00 0.197875000000D+03-0.342283767710D+00-0.782675458717D-08
   -0.430732227440D-09 0.100000000000D+01 0.192600000000D+04 0.000000000000D+00
    0.200000000000D+01 0.000000000000D+00-0.135041773319D-07 0.900000000000D+02
    0.854700000000D+05 0.400000000000D+01 0.000000000000D+00 0.000000000000D+00
